{
    "links": {
        "self": "http://www.neowsapp.com/rest/v1/neo/3672903?api_key=iIulBulltgU6a56xZRHN4H3l9WmuAYTsLGpBGhQ2"
    },
    "id": "3672903",
    "neo_reference_id": "3672903",
    "name": "(2014 KO76)",
    "designation": "2014 KO76",
    "nasa_jpl_url": "http://ssd.jpl.nasa.gov/sbdb.cgi?sstr=3672903",
    "absolute_magnitude_h": 23.9,
    "estimated_diameter": {
        "kilometers": {
            "estimated_diameter_min": 0.04411182,
            "estimated_diameter_max": 0.0986370281
        },
        "meters": {
            "estimated_diameter_min": 44.1118199997,
            "estimated_diameter_max": 98.6370281305
        },
        "miles": {
            "estimated_diameter_min": 0.0274098057,
            "estimated_diameter_max": 0.0612901888
        },
        "feet": {
            "estimated_diameter_min": 144.7238235278,
            "estimated_diameter_max": 323.6123073718
        }
    },
    "is_potentially_hazardous_asteroid": false,
    "close_approach_data": [
        {
            "close_approach_date": "2014-05-20",
            "close_approach_date_full": "2014-May-20 09:35",
            "epoch_date_close_approach": 1400578500000,
            "relative_velocity": {
                "kilometers_per_second": "14.2874658827",
                "kilometers_per_hour": "51434.8771777859",
                "miles_per_hour": "31959.6324330526"
            },
            "miss_distance": {
                "astronomical": "0.0873380084",
                "lunar": "33.9744852676",
                "kilometers": "13065580.026682108",
                "miles": "8118574.9652567704"
            },
            "orbiting_body": "Earth"
        }
    ],
    "orbital_data": {
        "orbit_id": "8",
        "orbit_determination_date": "2017-08-10 06:18:11",
        "first_observation_date": "2014-05-15",
        "last_observation_date": "2014-06-03",
        "data_arc_in_days": 19,
        "observations_used": 31,
        "orbit_uncertainty": "8",
        "minimum_orbit_intersection": ".0259349",
        "jupiter_tisserand_invariant": "3.202",
        "epoch_osculation": "2456806.5",
        "eccentricity": ".6136355401194302",
        "semi_major_axis": "2.436284919581026",
        "inclination": "9.469567664766824",
        "ascending_node_longitude": "57.46038180548418",
        "orbital_period": "1388.962569579872",
        "perihelion_distance": ".9412939070691004",
        "perihelion_argument": "134.468843141074",
        "aphelion_distance": "3.931275932092951",
        "perihelion_time": "2456764.400600999919",
        "mean_anomaly": "10.91158536015367",
        "mean_motion": ".2591862501441571",
        "equinox": "J2000",
        "orbit_class": {
            "orbit_class_type": "APO",
            "orbit_class_description": "Near-Earth asteroid orbits which cross the Earth’s orbit similar to that of 1862 Apollo",
            "orbit_class_range": "a (semi-major axis) > 1.0 AU; q (perihelion) < 1.017 AU"
        }
    },
    "is_sentry_object": false
}